[{"OBJECT_NAME":"TEVEL2-5","OBJECT_ID":"2025-052E","EPOCH":"2026-03-09T23:11:54.246048","MEAN_MOTION":15.30817434,"ECCENTRICITY":0.00047002,"INCLINATION":97.4013,"RA_OF_ASC_NODE":325.3677,"ARG_OF_PERICENTER":95.3936,"MEAN_ANOMALY":264.7842,"EPHEMERIS_TYPE":0,"CLASSIFICATION_TYPE":"U","NORAD_CAT_ID":63214,"ELEMENT_SET_NO":999,"REV_AT_EPOCH":5491,"BSTAR":0.00071764727,"MEAN_MOTION_DOT":0.00021339,"MEAN_MOTION_DDOT":0},{"OBJECT_NAME":"STARLINK-34375","OBJECT_ID":"2025-133F","EPOCH":"2026-03-09T10:59:38.524992","MEAN_MOTION":15.30206184,"ECCENTRICITY":0.0001126,"INCLINATION":53.16,"RA_OF_ASC_NODE":117.827,"ARG_OF_PERICENTER":80.7451,"MEAN_ANOMALY":279.3678,"EPHEMERIS_TYPE":0,"CLASSIFICATION_TYPE":"U","NORAD_CAT_ID":64477,"ELEMENT_SET_NO":999,"REV_AT_EPOCH":4115,"BSTAR":0.00073385779,"MEAN_MOTION_DOT":0.00021442,"MEAN_MOTION_DDOT":0}]
